     2.10           N: GPS NAV DATA                         RINEX VERSION / TYPE
RTKCONV-QT 2.4.3 b15                    20161002 105942 UTC PGM / RUN BY / DATE 
log: /home/max/rtklib_logs/rover_201610020835_bordstein.ub  COMMENT             
format: u-blox                                              COMMENT             
                                                            END OF HEADER       
16 16 10  2 10  0  0.0  .918470323086E-05  .181898940355E-11  .000000000000E+00
     .210000000000E+02 -.885000000000E+02  .377801451233E-08  .226038329507E+01
    -.444985926151E-05  .868998712394E-02  .107288360596E-04  .515357928276E+04
     .360000000000E+05 -.201165676117E-06 -.281687962920E+00 -.558793544769E-08
     .990894086053E+00  .190343750000E+03  .386346238517E+00 -.761138847345E-08
    -.261082303697E-09  .100000000000E+01  .191700000000E+04  .000000000000E+00
     .200000000000E+01  .000000000000E+00 -.107102096081E-07  .210000000000E+02
     .309360000000E+05  .400000000000E+01
26 16 10  2 10  0  0.0 -.479934737086E-03 -.648014975013E-11  .000000000000E+00
     .200000000000E+02 -.883750000000E+02  .456197573889E-08 -.302609260287E+01
    -.443309545517E-05  .101865851320E-02  .981241464615E-05  .515358969307E+04
     .360000000000E+05 -.409781932831E-07 -.364101210071E+00 -.558793544769E-08
     .960368942741E+00  .190281250000E+03 -.123787725947E+00 -.803604901941E-08
    -.277868717205E-09  .100000000000E+01  .191700000000E+04  .000000000000E+00
     .200000000000E+01  .000000000000E+00  .698491930962E-08  .200000000000E+02
     .309360000000E+05  .400000000000E+01
21 16 10  2 10  0  0.0 -.532488804311E-03 -.341060513165E-12  .000000000000E+00
     .103000000000E+03 -.234375000000E+01  .535593738200E-08 -.242128316656E+01
    -.102445483208E-06  .233288798481E-01  .285916030407E-05  .515381070137E+04
     .360000000000E+05  .271946191788E-06  .170791189037E+01  .279396772385E-07
     .937067264659E+00  .306781250000E+03 -.175406216764E+01 -.825070081766E-08
     .264296723305E-10  .100000000000E+01  .191700000000E+04  .000000000000E+00
     .200000000000E+01  .000000000000E+00 -.977888703346E-08  .103000000000E+03
     .309360000000E+05  .400000000000E+01
27 16 10  2 10  0  0.0  .146615784615E-03  .488853402203E-11  .000000000000E+00
     .200000000000E+02  .421250000000E+02  .432089426830E-08  .134846852661E+01
     .235810875893E-05  .382372806780E-02  .103581696749E-04  .515365463448E+04
     .360000000000E+05  .102445483208E-06  .687085097475E+00  .875443220139E-07
     .972644762330E+00  .183875000000E+03  .339213977487E+00 -.794925969000E-08
     .384658879729E-09  .100000000000E+01  .191700000000E+04  .000000000000E+00
     .200000000000E+01  .000000000000E+00  .186264514923E-08  .200000000000E+02
     .309360000000E+05  .400000000000E+01
20 16 10  2 10  0  0.0  .438683666289E-03  .193267624127E-11  .000000000000E+00
     .250000000000E+02 -.507187500000E+02  .513378527133E-08  .454774133660E+00
    -.249408185482E-05  .468239467591E-02  .993907451630E-05  .515359127617E+04
     .360000000000E+05 -.875443220139E-07  .269797511210E+01 -.689178705215E-07
     .926817425689E+00  .174843750000E+03  .144860772391E+01 -.836606276581E-08
    -.549665752928E-09  .100000000000E+01  .191700000000E+04  .000000000000E+00
     .200000000000E+01  .000000000000E+00 -.838190317154E-08  .250000000000E+02
     .309360000000E+05  .400000000000E+01
18 16 10  2 10  0  0.0  .563199631870E-03  .352429196937E-11  .000000000000E+00
     .840000000000E+02 -.547187500000E+02  .493699135979E-08  .288777340004E+01
    -.278465449810E-05  .172570465365E-01  .101495534182E-04  .515372434616E+04
     .360000000000E+05  .176951289177E-06  .274958495575E+01 -.130385160446E-06
     .925553054851E+00  .159375000000E+03 -.185738823835E+01 -.795140263641E-08
    -.513592821774E-09  .100000000000E+01  .191700000000E+04  .000000000000E+00
     .200000000000E+01  .000000000000E+00 -.111758708954E-07  .840000000000E+02
     .309360000000E+05  .400000000000E+01
29 16 10  2  9 59 44.0  .649096909910E-03 -.125055521494E-11  .000000000000E+00
     .330000000000E+02  .552500000000E+02  .413552940426E-08 -.293532642118E+01
     .271387398243E-05  .520779634826E-03  .978261232376E-05  .515374213219E+04
     .359840000000E+05 -.521540641785E-07  .747573145182E+00  .223517417908E-07
     .978678926363E+00  .197625000000E+03  .839548117063E-01 -.781353975101E-08
     .413231498465E-09  .100000000000E+01  .191700000000E+04  .000000000000E+00
     .200000000000E+01  .000000000000E+00 -.102445483208E-07  .330000000000E+02
     .309360000000E+05  .400000000000E+01
 7 16 10  2 10  0  0.0  .422745011747E-03 -.306954461848E-11  .000000000000E+00
     .770000000000E+02 -.103750000000E+02  .478341353409E-08 -.146552699470E+01
    -.627711415291E-06  .100325822132E-01  .201165676117E-05  .515362431908E+04
     .360000000000E+05  .139698386192E-06 -.137940988767E+01 -.782310962677E-07
     .964587312373E+00  .337343750000E+03 -.262492564808E+01 -.838963517627E-08
     .164292557730E-09  .100000000000E+01  .191700000000E+04  .000000000000E+00
     .200000000000E+01  .000000000000E+00 -.111758708954E-07  .770000000000E+02
     .309660000000E+05  .400000000000E+01
10 16 10  2 10  0  0.0 -.103931874037E-03 -.386535248253E-11  .000000000000E+00
     .102000000000E+03 -.460312500000E+02  .431803700643E-08 -.291654183767E+01
    -.235624611378E-05  .175697519444E-02  .107772648335E-04  .515368197632E+04
     .360000000000E+05  .447034835815E-07  .278314595690E+01  .745058059692E-08
     .960071348631E+00  .170406250000E+03 -.287439866126E+01 -.788747140199E-08
    -.459304846176E-09  .100000000000E+01  .191700000000E+04  .000000000000E+00
     .280000000000E+01  .000000000000E+00  .232830643654E-08  .102000000000E+03
     .309960000000E+05  .400000000000E+01
 8 16 10  2 10  0  0.0 -.339751131833E-04 -.147792889038E-11  .000000000000E+00
     .460000000000E+02  .391250000000E+02  .449661587353E-08  .214371207309E+01
     .217743217945E-05  .178192707244E-02  .992417335510E-05  .515375814629E+04
     .360000000000E+05  .800937414169E-07  .683385686328E+00 -.894069671631E-07
     .964547513687E+00  .186343750000E+03 -.102364413027E+01 -.796783189218E-08
     .346800159904E-09  .100000000000E+01  .191700000000E+04  .000000000000E+00
     .200000000000E+01  .000000000000E+00  .512227416039E-08  .460000000000E+02
     .309960000000E+05  .400000000000E+01
